CCSDS_OMM_VERS = 2.0
CREATION_DATE  = 
ORIGINATOR     = 

OBJECT_NAME    = STARLINK-36756
OBJECT_ID      = 2026-032W
CENTER_NAME    = EARTH
REF_FRAME      = TEME
TIME_SYSTEM    = UTC
MEAN_ELEMENT_THEORY = SGP/SGP4

EPOCH          = 2026-03-07T22:37:23.567232
MEAN_MOTION    = 15.75233796
ECCENTRICITY   = .0001213
INCLINATION    = 97.2849
RA_OF_ASC_NODE = 253.4209
ARG_OF_PERICENTER = 67.5644
MEAN_ANOMALY   = 292.5750

EPHEMERIS_TYPE = 0
CLASSIFICATION_TYPE = U
NORAD_CAT_ID   = 67817
ELEMENT_SET_NO = 999
REV_AT_EPOCH   = 450
BSTAR          = .10832E-2
MEAN_MOTION_DOT = .164903E-2
MEAN_MOTION_DDOT = 0

CCSDS_OMM_VERS = 2.0
CREATION_DATE  = 
ORIGINATOR     = 

OBJECT_NAME    = STARLINK-36346
OBJECT_ID      = 2026-032X
CENTER_NAME    = EARTH
REF_FRAME      = TEME
TIME_SYSTEM    = UTC
MEAN_ELEMENT_THEORY = SGP/SGP4

EPOCH          = 2026-03-07T22:00:01.999584
MEAN_MOTION    = 15.75114327
ECCENTRICITY   = .0001422
INCLINATION    = 97.2848
RA_OF_ASC_NODE = 253.4307
ARG_OF_PERICENTER = 84.8111
MEAN_ANOMALY   = 214.2865

EPHEMERIS_TYPE = 0
CLASSIFICATION_TYPE = U
NORAD_CAT_ID   = 67818
ELEMENT_SET_NO = 999
REV_AT_EPOCH   = 449
BSTAR          = .10073E-2
MEAN_MOTION_DOT = .152326E-2
MEAN_MOTION_DDOT = 0

CCSDS_OMM_VERS = 2.0
CREATION_DATE  = 
ORIGINATOR     = 

OBJECT_NAME    = STARLINK-36788
OBJECT_ID      = 2026-032Y
CENTER_NAME    = EARTH
REF_FRAME      = TEME
TIME_SYSTEM    = UTC
MEAN_ELEMENT_THEORY = SGP/SGP4

EPOCH          = 2026-03-07T22:53:08.921472
MEAN_MOTION    = 15.75229639
ECCENTRICITY   = .0001473
INCLINATION    = 97.2849
RA_OF_ASC_NODE = 253.4061
ARG_OF_PERICENTER = 85.2724
MEAN_ANOMALY   = 274.8710

EPHEMERIS_TYPE = 0
CLASSIFICATION_TYPE = U
NORAD_CAT_ID   = 67819
ELEMENT_SET_NO = 999
REV_AT_EPOCH   = 451
BSTAR          = .1024E-2
MEAN_MOTION_DOT = .155685E-2
MEAN_MOTION_DDOT = 0

CCSDS_OMM_VERS = 2.0
CREATION_DATE  = 
ORIGINATOR     = 

OBJECT_NAME    = STARLINK-36353
OBJECT_ID      = 2026-032Z
CENTER_NAME    = EARTH
REF_FRAME      = TEME
TIME_SYSTEM    = UTC
MEAN_ELEMENT_THEORY = SGP/SGP4

EPOCH          = 2026-03-07T22:47:33.194400
MEAN_MOTION    = 15.75224607
ECCENTRICITY   = .000122
INCLINATION    = 97.2850
RA_OF_ASC_NODE = 253.4112
ARG_OF_PERICENTER = 99.1309
MEAN_ANOMALY   = 261.0094

EPHEMERIS_TYPE = 0
CLASSIFICATION_TYPE = U
NORAD_CAT_ID   = 67820
ELEMENT_SET_NO = 999
REV_AT_EPOCH   = 451
BSTAR          = .6617E-3
MEAN_MOTION_DOT = .99877E-3
MEAN_MOTION_DDOT = 0

CCSDS_OMM_VERS = 2.0
CREATION_DATE  = 
ORIGINATOR     = 

OBJECT_NAME    = STARLINK-36644
OBJECT_ID      = 2026-033A
CENTER_NAME    = EARTH
REF_FRAME      = TEME
TIME_SYSTEM    = UTC
MEAN_ELEMENT_THEORY = SGP/SGP4

EPOCH          = 2026-03-07T23:45:10.364256
MEAN_MOTION    = 15.82047157
ECCENTRICITY   = .0001954
INCLINATION    = 42.9978
RA_OF_ASC_NODE = 281.9436
ARG_OF_PERICENTER = 281.4871
MEAN_ANOMALY   = 78.5781

EPHEMERIS_TYPE = 0
CLASSIFICATION_TYPE = U
NORAD_CAT_ID   = 67821
ELEMENT_SET_NO = 999
REV_AT_EPOCH   = 435
BSTAR          = .65429E-3
MEAN_MOTION_DOT = .139688E-2
MEAN_MOTION_DDOT = 0

CCSDS_OMM_VERS = 2.0
CREATION_DATE  = 
ORIGINATOR     = 

OBJECT_NAME    = STARLINK-36643
OBJECT_ID      = 2026-033B
CENTER_NAME    = EARTH
REF_FRAME      = TEME
TIME_SYSTEM    = UTC
MEAN_ELEMENT_THEORY = SGP/SGP4

EPOCH          = 2026-03-07T22:13:11.895168
MEAN_MOTION    = 15.82108674
ECCENTRICITY   = .0002417
INCLINATION    = 42.9978
RA_OF_ASC_NODE = 282.3247
ARG_OF_PERICENTER = 307.3716
MEAN_ANOMALY   = 52.6935

EPHEMERIS_TYPE = 0
CLASSIFICATION_TYPE = U
NORAD_CAT_ID   = 67822
ELEMENT_SET_NO = 999
REV_AT_EPOCH   = 434
BSTAR          = .22386E-2
MEAN_MOTION_DOT = .501335E-2
MEAN_MOTION_DDOT = 0

CCSDS_OMM_VERS = 2.0
CREATION_DATE  = 
ORIGINATOR     = 

OBJECT_NAME    = STARLINK-36646
OBJECT_ID      = 2026-033C
CENTER_NAME    = EARTH
REF_FRAME      = TEME
TIME_SYSTEM    = UTC
MEAN_ELEMENT_THEORY = SGP/SGP4

EPOCH          = 2026-03-07T23:43:01.571232
MEAN_MOTION    = 15.82034031
ECCENTRICITY   = .0002117
INCLINATION    = 42.9976
RA_OF_ASC_NODE = 281.9315
ARG_OF_PERICENTER = 254.9828
MEAN_ANOMALY   = 105.0809

EPHEMERIS_TYPE = 0
CLASSIFICATION_TYPE = U
NORAD_CAT_ID   = 67823
ELEMENT_SET_NO = 999
REV_AT_EPOCH   = 435
BSTAR          = .61716E-3
MEAN_MOTION_DOT = .131526E-2
MEAN_MOTION_DDOT = 0

CCSDS_OMM_VERS = 2.0
CREATION_DATE  = 
ORIGINATOR     = 

OBJECT_NAME    = STARLINK-36647
OBJECT_ID      = 2026-033D
CENTER_NAME    = EARTH
REF_FRAME      = TEME
TIME_SYSTEM    = UTC
MEAN_ELEMENT_THEORY = SGP/SGP4

EPOCH          = 2026-03-07T16:07:22.833984
MEAN_MOTION    = 15.82086944
ECCENTRICITY   = .0001567
INCLINATION    = 42.9980
RA_OF_ASC_NODE = 283.8597
ARG_OF_PERICENTER = 253.9493
MEAN_ANOMALY   = 106.1206

EPHEMERIS_TYPE = 0
CLASSIFICATION_TYPE = U
NORAD_CAT_ID   = 67824
ELEMENT_SET_NO = 999
REV_AT_EPOCH   = 430
BSTAR          = .91146E-3
MEAN_MOTION_DOT = .196455E-2
MEAN_MOTION_DDOT = 0

CCSDS_OMM_VERS = 2.0
CREATION_DATE  = 
ORIGINATOR     = 

OBJECT_NAME    = STARLINK-36648
OBJECT_ID      = 2026-033E
CENTER_NAME    = EARTH
REF_FRAME      = TEME
TIME_SYSTEM    = UTC
MEAN_ELEMENT_THEORY = SGP/SGP4

EPOCH          = 2026-03-07T23:40:52.162176
MEAN_MOTION    = 15.82189252
ECCENTRICITY   = .0001908
INCLINATION    = 42.9977
RA_OF_ASC_NODE = 281.9192
ARG_OF_PERICENTER = 299.5203
MEAN_ANOMALY   = 60.5479

EPHEMERIS_TYPE = 0
CLASSIFICATION_TYPE = U
NORAD_CAT_ID   = 67825
ELEMENT_SET_NO = 999
REV_AT_EPOCH   = 435
BSTAR          = .25292E-2
MEAN_MOTION_DOT = .573479E-2
MEAN_MOTION_DDOT = 0

CCSDS_OMM_VERS = 2.0
CREATION_DATE  = 
ORIGINATOR     = 

OBJECT_NAME    = STARLINK-35865
OBJECT_ID      = 2026-033F
CENTER_NAME    = EARTH
REF_FRAME      = TEME
TIME_SYSTEM    = UTC
MEAN_ELEMENT_THEORY = SGP/SGP4

EPOCH          = 2026-03-07T23:39:47.206656
MEAN_MOTION    = 15.82035045
ECCENTRICITY   = .0001827
INCLINATION    = 42.9974
RA_OF_ASC_NODE = 281.9139
ARG_OF_PERICENTER = 270.5159
MEAN_ANOMALY   = 89.5503

EPHEMERIS_TYPE = 0
CLASSIFICATION_TYPE = U
NORAD_CAT_ID   = 67826
ELEMENT_SET_NO = 999
REV_AT_EPOCH   = 435
BSTAR          = .59815E-3
MEAN_MOTION_DOT = .1274E-2
MEAN_MOTION_DDOT = 0

CCSDS_OMM_VERS = 2.0
CREATION_DATE  = 
ORIGINATOR     = 

OBJECT_NAME    = STARLINK-36289
OBJECT_ID      = 2026-033G
CENTER_NAME    = EARTH
REF_FRAME      = TEME
TIME_SYSTEM    = UTC
MEAN_ELEMENT_THEORY = SGP/SGP4

EPOCH          = 2026-03-07T23:38:42.517248
MEAN_MOTION    = 15.82061510
ECCENTRICITY   = .0001291
INCLINATION    = 42.9974
RA_OF_ASC_NODE = 281.9071
ARG_OF_PERICENTER = 286.4029
MEAN_ANOMALY   = 73.6701

EPHEMERIS_TYPE = 0
CLASSIFICATION_TYPE = U
NORAD_CAT_ID   = 67827
ELEMENT_SET_NO = 999
REV_AT_EPOCH   = 435
BSTAR          = .96275E-3
MEAN_MOTION_DOT = .207561E-2
MEAN_MOTION_DDOT = 0

CCSDS_OMM_VERS = 2.0
CREATION_DATE  = 
ORIGINATOR     = 

OBJECT_NAME    = STARLINK-36670
OBJECT_ID      = 2026-033H
CENTER_NAME    = EARTH
REF_FRAME      = TEME
TIME_SYSTEM    = UTC
MEAN_ELEMENT_THEORY = SGP/SGP4

EPOCH          = 2026-03-07T23:37:37.593696
MEAN_MOTION    = 15.82083296
ECCENTRICITY   = .0001701
INCLINATION    = 42.9976
RA_OF_ASC_NODE = 281.9008
ARG_OF_PERICENTER = 277.6217
MEAN_ANOMALY   = 82.4461

EPHEMERIS_TYPE = 0
CLASSIFICATION_TYPE = U
NORAD_CAT_ID   = 67828
ELEMENT_SET_NO = 999
REV_AT_EPOCH   = 435
BSTAR          = .11371E-2
MEAN_MOTION_DOT = .246623E-2
MEAN_MOTION_DDOT = 0

