STARLINK-36756          
1 67817U 26032W   26066.94263388  .00164903  00000+0  10832-2 0  9993
2 67817  97.2849 253.4209 0001213  67.5644 292.5750 15.75233796  4501
STARLINK-36346          
1 67818U 26032X   26066.91668981  .00152326  00000+0  10073-2 0  9992
2 67818  97.2848 253.4307 0001422  84.8111 214.2865 15.75114327  4497
STARLINK-36788          
1 67819U 26032Y   26066.95357548  .00155685  00000+0  10240-2 0  9998
2 67819  97.2849 253.4061 0001473  85.2724 274.8710 15.75229639  4514
STARLINK-36353          
1 67820U 26032Z   26066.94968975  .00099877  00000+0  66170-3 0  9995
2 67820  97.2850 253.4112 0001220  99.1309 261.0094 15.75224607  4511
STARLINK-36644          
1 67821U 26033A   26066.98970329  .00139688  00000+0  65429-3 0  9998
2 67821  42.9978 281.9436 0001954 281.4871  78.5781 15.82047157  4356
STARLINK-36643          
1 67822U 26033B   26066.92583212  .00501335  00000+0  22386-2 0  9990
2 67822  42.9978 282.3247 0002417 307.3716  52.6935 15.82108674  4348
STARLINK-36646          
1 67823U 26033C   26066.98821263  .00131526  00000+0  61716-3 0  9990
2 67823  42.9976 281.9315 0002117 254.9828 105.0809 15.82034031  4355
STARLINK-36647          
1 67824U 26033D   26066.67179206  .00196455  00000+0  91146-3 0  9992
2 67824  42.9980 283.8597 0001567 253.9493 106.1206 15.82086944  4307
STARLINK-36648          
1 67825U 26033E   26066.98671484  .00573479  00000+0  25292-2 0  9995
2 67825  42.9977 281.9192 0001908 299.5203  60.5479 15.82189252  4354
STARLINK-35865          
1 67826U 26033F   26066.98596304  .00127400  00000+0  59815-3 0  9991
2 67826  42.9974 281.9139 0001827 270.5159  89.5503 15.82035045  4351
STARLINK-36289          
1 67827U 26033G   26066.98521432  .00207561  00000+0  96275-3 0  9990
2 67827  42.9974 281.9071 0001291 286.4029  73.6701 15.82061510  4354
STARLINK-36670          
1 67828U 26033H   26066.98446289  .00246623  00000+0  11371-2 0  9992
2 67828  42.9976 281.9008 0001701 277.6217  82.4461 15.82083296  4350
